OBJECT_NAME,OBJECT_ID,EPOCH,MEAN_MOTION,ECCENTRICITY,INCLINATION,RA_OF_ASC_NODE,ARG_OF_PERICENTER,MEAN_ANOMALY,EPHEMERIS_TYPE,CLASSIFICATION_TYPE,NORAD_CAT_ID,ELEMENT_SET_NO,REV_AT_EPOCH,BSTAR,MEAN_MOTION_DOT,MEAN_MOTION_DDOT
COSMOS 2531 (RODNIK-S 17),2018-097B,2026-06-28T21:50:10.235616,12.42913315,.00172995,82.5177,216.0678,33.9439,326.2744,0,U,43752,999,34376,.13826762E-2,.202E-5,0
COSMOS 2532 (RODNIK-S 18),2018-097C,2026-06-28T22:30:55.349568,12.42910154,.00187231,82.5121,214.8308,35.6605,324.5722,0,U,43753,999,34373,.3793594E-3,.63E-6,0
MINXSS-2,2018-099A,2026-06-28T22:14:40.024896,15.47690816,.00076396,97.4538,256.5603,211.5564,148.5229,0,U,43758,999,41594,.65867313E-3,.34097E-3,0
SIRION PATHFINDER-2,2018-099B,2026-06-28T16:15:17.704800,15.14646139,.00071501,97.4248,228.4616,256.0298,104.0139,0,U,43759,999,41436,.24629945E-3,.449E-4,0
AISTECHSAT 2,2018-099L,2026-06-28T17:01:57.461376,15.15560382,.00031165,97.4289,227.4916,248.0546,112.0355,0,U,43768,999,41402,.24401103E-3,.4563E-4,0
FOX-1CLIFF (AO-95),2018-099N,2026-06-28T14:41:44.354688,15.26945463,.00070548,97.4385,239.8174,311.8599,48.2037,0,U,43770,999,41496,.38163646E-3,.10033E-3,0
RANGE-A,2018-099R,2026-06-28T14:47:24.060480,15.13480287,.00087923,97.3960,221.8609,313.5487,46.5014,0,U,43773,999,41422,.22910738E-3,.4038E-4,0
SNUSAT-2,2018-099AA,2026-06-28T15:24:36.829152,15.22004633,.00088291,97.4059,232.8500,250.6133,109.4149,0,U,43782,999,41477,.33561615E-3,.7604E-4,0
SNUGLITE,2018-099AC,2026-06-28T16:11:40.375968,15.27421930,.00018819,97.3867,233.8426,212.2259,147.8865,0,U,43784,999,41507,.3986562E-3,.10632E-3,0
ITASAT,2018-099AE,2026-06-28T16:20:02.671008,15.19194925,.00110557,97.4026,230.9633,317.1813,42.8560,0,U,43786,999,41465,.30212886E-3,.63E-4,0
EAGLET-I,2018-099AJ,2026-06-28T16:37:45.646752,15.13021160,.00097024,97.4225,229.0566,310.6127,49.4259,0,U,43790,999,41407,.23305473E-3,.4056E-4,0
ESEO,2018-099AL,2026-06-28T18:06:47.024352,15.04281973,.00101495,97.3971,216.6482,298.6456,61.3750,0,U,43792,999,41354,.86116447E-4,.1141E-4,0
THEA,2018-099AQ,2026-06-28T16:10:27.154560,15.35394254,.00065158,97.4445,249.4798,233.7252,126.3390,0,U,43796,999,41445,.51017411E-3,.1749E-3,0
ASTROCAST 0.1,2018-099AS,2026-06-28T22:43:51.285504,15.50338622,.00056848,97.4379,258.8161,170.2500,189.8863,0,U,43798,999,41625,.64924102E-3,.36864E-3,0
JY1SAT (JO-97),2018-099AX,2026-06-28T15:26:00.465216,15.34009895,.0005256,97.4130,242.5189,213.1026,146.9889,0,U,43803,999,41538,.48154504E-3,.15787E-3,0
SUOMI-100,2018-099AY,2026-06-28T22:11:02.533632,15.28680106,.00089735,97.4183,240.2750,230.8093,129.2350,0,U,43804,999,41521,.42476264E-3,.1179E-3,0
CENTAURI-1,2018-099BD,2026-06-28T22:50:28.688352,15.16477453,.00124143,97.4218,231.4188,288.4026,71.5857,0,U,43809,999,41428,.27543969E-3,.5306E-4,0
GLOBAL-2,2018-099BG,2026-06-28T16:21:27.375840,15.08737639,.00077058,97.3550,215.7169,110.9529,249.2525,0,U,43812,999,41364,.15588441E-3,.2388E-4,0
SEAHAWK-1,2018-099BQ,2026-06-28T15:14:20.523264,15.22986510,.00065794,97.3956,231.9465,265.2529,94.7956,0,U,43820,999,41427,.3548748E-3,.8278E-4,0
SAUDISAT 5A,2018-102A,2026-06-28T22:50:30.737760,15.28166469,.00112862,97.3067,241.3062,93.5224,266.7307,0,U,43831,999,41747,.18788809E-3,.5093E-4,0
SAUDISAT 5B,2018-102C,2026-06-28T23:14:50.076096,15.28416976,.0012004,97.3176,244.4138,95.1431,265.1179,0,U,43833,999,41759,.18220043E-3,.4976E-4,0
ISAT,2018-111D,2026-06-28T18:57:09.040608,15.67452698,.0004158,97.5868,115.9204,162.4013,197.7392,0,U,43879,999,41298,.90610559E-3,.989E-3,0
UWE-4,2018-111E,2026-06-28T17:35:13.747200,15.46830236,.00042855,97.5851,108.6609,279.6712,80.4053,0,U,43880,999,41256,.62174864E-3,.31201E-3,0
D-STAR ONE (SPARROW),2018-111F,2026-06-28T19:30:24.789888,15.78181643,.00051986,97.6099,121.7877,134.7870,225.3820,0,U,43881,999,41320,.9919147E-3,.172104E-2,0
JILIN-1 09,2019-005B,2026-06-28T23:01:42.189312,15.20612942,.00034881,97.4749,274.8218,70.5659,289.5953,0,U,43943,999,41093,.20344402E-3,.4391E-4,0
JILIN-1 10,2019-005E,2026-06-28T22:21:14.136768,15.25844026,.00070403,97.4797,278.7361,229.1208,130.9421,0,U,43946,999,41110,.21022392E-3,.5309E-4,0
EGYPTSAT-A (MISRSAT-A),2019-008A,2026-06-28T23:14:38.740416,14.72320244,.00015331,98.0197,244.5714,97.8582,262.2799,0,U,44047,999,39497,.93974742E-4,.545E-5,0
EMISAT,2019-018A,2026-06-28T23:54:20.613024,14.43642102,.00183185,98.4649,238.7314,178.6351,181.4892,0,U,44078,999,38176,.40252948E-4,.93E-6,0
