COSMOS 2531 (RODNIK-S *)
1 43752U 18097B   26179.90984069  .00000202  00000+0  13827-2 0  9992
2 43752  82.5177 216.0678 0017299  33.9439 326.2744 12.42913315343764
COSMOS 2532 (RODNIK-S *)
1 43753U 18097C   26179.93814062  .00000063  00000+0  37936-3 0  9994
2 43753  82.5121 214.8308 0018723  35.6605 324.5722 12.42910154343739
MINXSS-2                
1 43758U 18099A   26179.92685214  .00034097  00000+0  65867-3 0  9993
2 43758  97.4538 256.5603 0007639 211.5564 148.5229 15.47690816415942
SIRION PATHFINDER-2     
1 43759U 18099B   26179.67728825  .00004490  00000+0  24630-3 0  9999
2 43759  97.4248 228.4616 0007150 256.0298 104.0139 15.14646139414364
AISTECHSAT 2            
1 43768U 18099L   26179.70969284  .00004563  00000+0  24401-3 0  9996
2 43768  97.4289 227.4916 0003116 248.0546 112.0355 15.15560382414024
FOX-1CLIFF (AO-95)      
1 43770U 18099N   26179.61231892  .00010033  00000+0  38164-3 0  9996
2 43770  97.4385 239.8174 0007054 311.8599  48.2037 15.26945463414968
RANGE-A                 
1 43773U 18099R   26179.61625070  .00004038  00000+0  22911-3 0  9995
2 43773  97.3960 221.8609 0008792 313.5487  46.5014 15.13480287414227
SNUSAT-2                
1 43782U 18099AA  26179.64209293  .00007604  00000+0  33562-3 0  9999
2 43782  97.4059 232.8500 0008829 250.6133 109.4149 15.22004633414774
SNUGLITE                
1 43784U 18099AC  26179.67477287  .00010632  00000+0  39866-3 0  9992
2 43784  97.3867 233.8426 0001881 212.2259 147.8865 15.27421930415077
ITASAT                  
1 43786U 18099AE  26179.68058647  .00006300  00000+0  30213-3 0  9994
2 43786  97.4026 230.9633 0011055 317.1813  42.8560 15.19194925414651
EAGLET-I                
1 43790U 18099AJ  26179.69288943  .00004056  00000+0  23305-3 0  9994
2 43790  97.4225 229.0566 0009702 310.6127  49.4259 15.13021160414071
ESEO                    
1 43792U 18099AL  26179.75471093  .00001141  00000+0  86116-4 0  9995
2 43792  97.3971 216.6482 0010149 298.6456  61.3750 15.04281973413546
THEA                    
1 43796U 18099AQ  26179.67392540  .00017490  00000+0  51017-3 0  9994
2 43796  97.4445 249.4798 0006515 233.7252 126.3390 15.35394254414451
ASTROCAST 0.1           
1 43798U 18099AS  26179.94712136  .00036864  00000+0  64924-3 0  9990
2 43798  97.4379 258.8161 0005684 170.2500 189.8863 15.50338622416257
JY1SAT (JO-97)          
1 43803U 18099AX  26179.64306094  .00015787  00000+0  48155-3 0  9995
2 43803  97.4130 242.5189 0005256 213.1026 146.9889 15.34009895415388
SUOMI-100               
1 43804U 18099AY  26179.92433488  .00011790  00000+0  42476-3 0  9995
2 43804  97.4183 240.2750 0008973 230.8093 129.2350 15.28680106415217
CENTAURI-1              
1 43809U 18099BD  26179.95172093  .00005306  00000+0  27544-3 0  9990
2 43809  97.4218 231.4188 0012414 288.4026  71.5857 15.16477453414281
GLOBAL-2                
1 43812U 18099BG  26179.68156685  .00002388  00000+0  15588-3 0  9995
2 43812  97.3550 215.7169 0007705 110.9529 249.2525 15.08737639413642
SEAHAWK-1               
1 43820U 18099BQ  26179.63495976  .00008278  00000+0  35487-3 0  9992
2 43820  97.3956 231.9465 0006579 265.2529  94.7956 15.22986510414273
SAUDISAT 5A             
1 43831U 18102A   26179.95174465  .00005093  00000+0  18789-3 0  9999
2 43831  97.3067 241.3062 0011286  93.5224 266.7307 15.28166469417476
SAUDISAT 5B             
1 43833U 18102C   26179.96863514  .00004976  00000+0  18220-3 0  9991
2 43833  97.3176 244.4138 0012004  95.1431 265.1179 15.28416976417598
ISAT                    
1 43879U 18111D   26179.78968797  .00098900  00000+0  90611-3 0  9994
2 43879  97.5868 115.9204 0004158 162.4013 197.7392 15.67452698412988
UWE-4                   
1 43880U 18111E   26179.73279800  .00031201  00000+0  62175-3 0  9996
2 43880  97.5851 108.6609 0004285 279.6712  80.4053 15.46830236412569
D-STAR ONE (SPARROW)    
1 43881U 18111F   26179.81278692  .00172104  00000+0  99191-3 0  9990
2 43881  97.6099 121.7877 0005198 134.7870 225.3820 15.78181643413208
JILIN-1 09              
1 43943U 19005B   26179.95951608  .00004391  00000+0  20344-3 0  9998
2 43943  97.4749 274.8218 0003488  70.5659 289.5953 15.20612942410932
JILIN-1 10              
1 43946U 19005E   26179.93141362  .00005309  00000+0  21022-3 0  9991
2 43946  97.4797 278.7361 0007040 229.1208 130.9421 15.25844026411104
EGYPTSAT-A (MISRSAT-A)  
1 44047U 19008A   26179.96850394  .00000545  00000+0  93975-4 0  9996
2 44047  98.0197 244.5714 0001533  97.8582 262.2799 14.72320244394971
EMISAT                  
1 44078U 19018A   26179.99607191  .00000093  00000+0  40253-4 0  9998
2 44078  98.4649 238.7314 0018318 178.6351 181.4892 14.43642102381760
